#aV2014  4 25  0  0  0.00000000     288 DD+AD WGS84 FIT  NGA
## 1789 432000.00000000   300.00000000 56772 0.0000000000000
+   32     1  2  3  4  5  6  7  8  9 10 11 12 13 14 15 16 17
+         18 19 20 21 22 23 24 25 26 27 28 29 30 31 32  0  0
+          0  0  0  0  0  0  0  0  0  0  0  0  0  0  0  0  0
+          0  0  0  0  0  0  0  0  0  0  0  0  0  0  0  0  0
+          0  0  0  0  0  0  0  0  0  0  0  0  0  0  0  0  0
++         2  2  2  2  2  2  2  2  2  2  2  2  2  2  2  2  2
++         2  2  2  2  2  2  2  2  2  2  2  2  2  2  2  0  0
++         0  0  0  0  0  0  0  0  0  0  0  0  0  0  0  0  0
++         0  0  0  0  0  0  0  0  0  0  0  0  0  0  0  0  0
++         0  0  0  0  0  0  0  0  0  0  0  0  0  0  0  0  0
%c cc cc ccc ccc cccc cccc cccc cccc ccccc ccccc ccccc ccccc
%c cc cc ccc ccc cccc cccc cccc cccc ccccc ccccc ccccc ccccc
%f  0.0000000  0.000000000  0.00000000000  0.000000000000000
%f  0.0000000  0.000000000  0.00000000000  0.000000000000000
%i    0    0    0    0      0      0      0      0         0
%i    0    0    0    0      0      0      0      0         0
/*      NGA, ST. LOUIS,MO.                                  
/*   EPHEMERIS COMPUTED FROM  1 DAYS OF DATA                
/*   EPOCHA SMOOTHER                                       
/* CCCCCCCCCCCCCCCCCCCCCCCCCCCCCCCCCCCCCCCCCCCCCCCCCCCCCCCCC
*  2014  4 25  1 50  0.00000000
P  1  13500.178898 -10476.147120  20269.068186      9.893006                    
V  1   2820.706928  25708.670559  11523.958472      0.014452                    
P  2 -13915.285173 -14907.400311 -16981.481375    491.633105                    
V  2   -203.325002 -22079.423636  18732.479613      0.021600                    
P  3  25700.582057   6676.347136   1668.941614    356.191204                    
V  3   1625.705287   4093.411315 -31045.329576      0.049816                    
P  4  -7171.127796 -24528.559132  -7082.488010      6.819734                    
V  4   2773.836456  -8930.428017  29634.785959      0.001643                    
P  5 -19210.312817  -2746.745279 -18240.696970   -376.905918                    
V  5  18128.473627 -14362.140916 -16802.117536      0.022723                    
P  6   6488.687474  13445.636462 -22120.778815   -156.989073                    
V  6 -23251.561145  14949.315172   2494.719804     -0.020022                    
P  7   6720.467183 -22775.848950 -11476.357366    339.056236                    
V  7   3028.543542  14650.075910 -27460.452475      0.042468                    
P  8   2259.276353 -26074.243614  -1445.989155     13.106454                    
V  8   2081.107979   2158.583356 -32880.905126      0.001820                    
P  9  -1698.394490 -26401.412894   -175.363578    322.696498                    
V  9   2269.531516   -580.478072 -32343.762904      0.027793                    
P 10  -3501.074313 -16065.508562 -21127.765933   -122.934934                    
V 10  22390.915603 -13634.807216   7189.015978     -0.013630                    
P 11  16584.157230  -2519.468734  20129.400687   -483.500041                    
V 11   9578.338394  25214.388572  -4413.319634     -0.031672                    
P 12 -23609.208926  10716.059734   5112.356589    200.757372                    
V 12   4488.632269  -5273.730120  31609.192014      0.024303                    
P 13  10498.645935 -10903.034090 -21972.169129      6.313326                    
V 13  23242.490192  14716.929899   3671.569581     -0.038219                    
P 14   7564.140562  18484.568997  17798.331177    178.681716                    
V 14 -19775.946194  -9934.377607  18808.113822     -0.033744                    
P 15 -24280.032468  -1970.701483  10869.862198   -175.801406                    
V 15 -11499.925789  -8204.816795 -26744.809817     -0.021509                    
P 16  18846.757457   3073.176747 -18662.841557   -221.625962                    
V 16 -19664.935311  12719.805925 -17454.161161      0.018093                    
P 17  -9042.129531 -18379.964489  17287.459523    -87.808915                    
V 17  19456.985116   8891.505069  19706.808592     -0.031318                    
P 18 -12973.583819  19893.745904  11987.281161    315.299416                    
V 18 -14047.523277   5608.290652 -25800.846587      0.023073                    
P 19  23931.682728   6363.710203  10058.160887   -453.039576                    
V 19   9885.624923   8414.599038 -28024.293250     -0.022658                    
P 20  22442.124268 -13501.910810   4020.786010    182.965700                    
V 20  -1881.248509   6349.811254  30473.440656      0.037564                    
P 21  -4083.767218  24511.132484  -8065.364657   -357.304092                    
V 21  -4828.079033 -10931.549350 -29017.666791     -0.022288                    
P 22   -645.105704  18251.644448  19443.137769    229.370445                    
V 22 -21079.662206  12465.723224 -12699.677828      0.027813                    
P 23  20708.028001  -2841.648853 -16519.726263    -15.167672                    
V 23  18044.519722  10954.546572  20196.634540     -0.031447                    
P 24 -14772.030366   4996.510024  21470.374962    -27.314446                    
V 24  -2705.883472 -27206.341906   4557.752501     -0.006543                    
P 25 -18463.893730  17883.538890  -6464.326699     22.569242                    
V 25  -8031.440768   2663.762125  30762.793047      0.008544                    
P 26 -22990.688707 -13556.104243    642.168367     98.599082                    
V 26   -255.381513  -2657.475166 -31866.153050     -0.115029                    
P 27  23383.852217  12548.439957  -1671.638005    -18.843678                    
V 27  -3078.191535   1516.753671 -31671.401896      0.011308                    
P 28   5561.467158 -18032.828167  19237.883946    349.843527                    
V 28  20428.678361 -10932.925018 -16812.793191      0.029399                    
P 29 -11489.936069  10511.330228 -21468.046688    527.884283                    
V 29 -23706.668284 -13628.193744   6050.083151      0.027541                    
P 30   1714.051532 -26403.149148  -2182.722293     -3.569925                    
V 30   2863.673974   2783.941068 -31571.204378     -0.037567                    
P 31   8271.050783  22528.244592 -10873.926237    334.246030                    
V 31  -1640.054196  14204.217629  28090.136067      0.000182                    
P 32  22471.440885  -1297.915711  13723.054896   -442.553700                    
V 32 -13941.864133  11059.254490  24519.294095      0.077977                    
EOF
